[
  {
    "OBJECT_NAME": "STARLINK-5067",
    "OBJECT_ID": "23021AB",
    "EPOCH": "2025-11-11T04:16:41.920608",
    "MEAN_MOTION": 14.9834207,
    "ECCENTRICITY": 0.0003168,
    "INCLINATION": 69.9974,
    "RA_OF_ASC_NODE": 123.0995,
    "ARG_OF_PERICENTER": 268.0089,
    "MEAN_ANOMALY": 92.0707,
    "EPHEMERIS_TYPE": 0,
    "CLASSIFICATION_TYPE": "U",
    "NORAD_CAT_ID": 55653,
    "ELEMENT_SET_NO": 999,
    "REV_AT_EPOCH": 15104,
    "BSTAR": 8.3001e-05,
    "MEAN_MOTION_DOT": 8.98e-06,
    "MEAN_MOTION_DDOT": 0.0,
    "TLE_LINE1": "1 55653U 23021AB  25315.17826297  .00000898  00000+0  83001-4 0  9990",
    "TLE_LINE2": "2 55653  69.9974 123.0995 0003168 268.0089  92.0707 14.98342070151044",
    "COMMENT": "Grouped by shell and plane from TLE"
  },
  {
    "OBJECT_NAME": "STARLINK-5070",
    "OBJECT_ID": "23021AC",
    "EPOCH": "2025-11-10T21:34:11.232768",
    "MEAN_MOTION": 14.98317496,
    "ECCENTRICITY": 0.0002673,
    "INCLINATION": 69.9985,
    "RA_OF_ASC_NODE": 124.1341,
    "ARG_OF_PERICENTER": 269.168,
    "MEAN_ANOMALY": 90.9173,
    "EPHEMERIS_TYPE": 0,
    "CLASSIFICATION_TYPE": "U",
    "NORAD_CAT_ID": 55654,
    "ELEMENT_SET_NO": 999,
    "REV_AT_EPOCH": 15099,
    "BSTAR": 0.00012876,
    "MEAN_MOTION_DOT": 1.443e-05,
    "MEAN_MOTION_DDOT": 0.0,
    "TLE_LINE1": "1 55654U 23021AC  25314.89874112  .00001443  00000+0  12876-3 0  9996",
    "TLE_LINE2": "2 55654  69.9985 124.1341 0002673 269.1680  90.9173 14.98317496150994",
    "COMMENT": "Grouped by shell and plane from TLE"
  },
  {
    "OBJECT_NAME": "STARLINK-5307",
    "OBJECT_ID": "23021AG",
    "EPOCH": "2025-11-11T04:28:42.996000",
    "MEAN_MOTION": 14.98332041,
    "ECCENTRICITY": 0.0002821,
    "INCLINATION": 69.9979,
    "RA_OF_ASC_NODE": 123.13,
    "ARG_OF_PERICENTER": 271.4838,
    "MEAN_ANOMALY": 88.5998,
    "EPHEMERIS_TYPE": 0,
    "CLASSIFICATION_TYPE": "U",
    "NORAD_CAT_ID": 55658,
    "ELEMENT_SET_NO": 999,
    "REV_AT_EPOCH": 15104,
    "BSTAR": 0.0,
    "MEAN_MOTION_DOT": -3.66e-06,
    "MEAN_MOTION_DDOT": 0.0,
    "TLE_LINE1": "1 55658U 23021AG  25315.18660875 -.00000366  00000+0 -22908-4 0  9995",
    "TLE_LINE2": "2 55658  69.9979 123.1300 0002821 271.4838  88.5998 14.98332041151049",
    "COMMENT": "Grouped by shell and plane from TLE"
  },
  {
    "OBJECT_NAME": "STARLINK-30108",
    "OBJECT_ID": "23056P",
    "EPOCH": "2025-11-10T11:26:39.957504",
    "MEAN_MOTION": 15.02535627,
    "ECCENTRICITY": 0.0001302,
    "INCLINATION": 43.0032,
    "RA_OF_ASC_NODE": 125.6266,
    "ARG_OF_PERICENTER": 264.2437,
    "MEAN_ANOMALY": 95.8257,
    "EPHEMERIS_TYPE": 0,
    "CLASSIFICATION_TYPE": "U",
    "NORAD_CAT_ID": 56299,
    "ELEMENT_SET_NO": 999,
    "REV_AT_EPOCH": 14229,
    "BSTAR": 2.1518000000000003e-05,
    "MEAN_MOTION_DOT": 8.7e-07,
    "MEAN_MOTION_DDOT": 0.0,
    "TLE_LINE1": "1 56299U 23056P   25314.47685136  .00000087  00000+0  21518-4 0  9997",
    "TLE_LINE2": "2 56299  43.0032 125.6266 0001302 264.2437  95.8257 15.02535627142297",
    "COMMENT": "Grouped by shell and plane from TLE"
  },
  {
    "OBJECT_NAME": "STARLINK-6156",
    "OBJECT_ID": "23061A",
    "EPOCH": "2025-11-10T12:06:31.578624",
    "MEAN_MOTION": 15.02534511,
    "ECCENTRICITY": 0.0001593,
    "INCLINATION": 43.004,
    "RA_OF_ASC_NODE": 125.2997,
    "ARG_OF_PERICENTER": 266.8505,
    "MEAN_ANOMALY": 93.2155,
    "EPHEMERIS_TYPE": 0,
    "CLASSIFICATION_TYPE": "U",
    "NORAD_CAT_ID": 56374,
    "ELEMENT_SET_NO": 999,
    "REV_AT_EPOCH": 13992,
    "BSTAR": 0.0,
    "MEAN_MOTION_DOT": -4.28e-06,
    "MEAN_MOTION_DDOT": 0.0,
    "TLE_LINE1": "1 56374U 23061A   25314.50453216 -.00000428  00000+0 -16632-4 0  9995",
    "TLE_LINE2": "2 56374  43.0040 125.2997 0001593 266.8505  93.2155 15.02534511139929",
    "COMMENT": "Grouped by shell and plane from TLE"
  },
  {
    "OBJECT_NAME": "STARLINK-6158",
    "OBJECT_ID": "23061B",
    "EPOCH": "2025-11-11T03:55:48.380160",
    "MEAN_MOTION": 15.02537114,
    "ECCENTRICITY": 0.0001258,
    "INCLINATION": 43.0034,
    "RA_OF_ASC_NODE": 121.6449,
    "ARG_OF_PERICENTER": 266.8947,
    "MEAN_ANOMALY": 93.1751,
    "EPHEMERIS_TYPE": 0,
    "CLASSIFICATION_TYPE": "U",
    "NORAD_CAT_ID": 56375,
    "ELEMENT_SET_NO": 999,
    "REV_AT_EPOCH": 13892,
    "BSTAR": 8.0331e-05,
    "MEAN_MOTION_DOT": 8.82e-06,
    "MEAN_MOTION_DDOT": 0.0,
    "TLE_LINE1": "1 56375U 23061B   25315.16375440  .00000882  00000+0  80331-4 0  9990",
    "TLE_LINE2": "2 56375  43.0034 121.6449 0001258 266.8947  93.1751 15.02537114138925",
    "COMMENT": "Grouped by shell and plane from TLE"
  },
  {
    "OBJECT_NAME": "STARLINK-6188",
    "OBJECT_ID": "23061C",
    "EPOCH": "2025-11-10T13:03:53.110080",
    "MEAN_MOTION": 15.02538924,
    "ECCENTRICITY": 0.0001329,
    "INCLINATION": 43.0038,
    "RA_OF_ASC_NODE": 124.7382,
    "ARG_OF_PERICENTER": 266.4026,
    "MEAN_ANOMALY": 93.6664,
    "EPHEMERIS_TYPE": 0,
    "CLASSIFICATION_TYPE": "U",
    "NORAD_CAT_ID": 56376,
    "ELEMENT_SET_NO": 999,
    "REV_AT_EPOCH": 13883,
    "BSTAR": 0.00010502000000000001,
    "MEAN_MOTION_DOT": 1.215e-05,
    "MEAN_MOTION_DDOT": 0.0,
    "TLE_LINE1": "1 56376U 23061C   25314.54436470  .00001215  00000+0  10502-3 0  9996",
    "TLE_LINE2": "2 56376  43.0038 124.7382 0001329 266.4026  93.6664 15.02538924138831",
    "COMMENT": "Grouped by shell and plane from TLE"
  },
  {
    "OBJECT_NAME": "STARLINK-6189",
    "OBJECT_ID": "23061D",
    "EPOCH": "2025-11-11T03:51:00.543744",
    "MEAN_MOTION": 15.0253901,
    "ECCENTRICITY": 0.0001334,
    "INCLINATION": 43.0039,
    "RA_OF_ASC_NODE": 121.6197,
    "ARG_OF_PERICENTER": 268.5564,
    "MEAN_ANOMALY": 91.5126,
    "EPHEMERIS_TYPE": 0,
    "CLASSIFICATION_TYPE": "U",
    "NORAD_CAT_ID": 56377,
    "ELEMENT_SET_NO": 999,
    "REV_AT_EPOCH": 13892,
    "BSTAR": 6.8446e-05,
    "MEAN_MOTION_DOT": 7.21e-06,
    "MEAN_MOTION_DDOT": 0.0,
    "TLE_LINE1": "1 56377U 23061D   25315.16042296  .00000721  00000+0  68446-4 0  9997",
    "TLE_LINE2": "2 56377  43.0039 121.6197 0001334 268.5564  91.5126 15.02539010138926",
    "COMMENT": "Grouped by shell and plane from TLE"
  },
  {
    "OBJECT_NAME": "STARLINK-6191",
    "OBJECT_ID": "23061E",
    "EPOCH": "2025-11-11T03:57:24.144192",
    "MEAN_MOTION": 15.02539767,
    "ECCENTRICITY": 0.000124,
    "INCLINATION": 43.0018,
    "RA_OF_ASC_NODE": 121.6443,
    "ARG_OF_PERICENTER": 274.3069,
    "MEAN_ANOMALY": 85.7631,
    "EPHEMERIS_TYPE": 0,
    "CLASSIFICATION_TYPE": "U",
    "NORAD_CAT_ID": 56378,
    "ELEMENT_SET_NO": 999,
    "REV_AT_EPOCH": 13892,
    "BSTAR": 8.6568e-05,
    "MEAN_MOTION_DOT": 9.66e-06,
    "MEAN_MOTION_DDOT": 0.0,
    "TLE_LINE1": "1 56378U 23061E   25315.16486278  .00000966  00000+0  86568-4 0  9996",
    "TLE_LINE2": "2 56378  43.0018 121.6443 0001240 274.3069  85.7631 15.02539767138924",
    "COMMENT": "Grouped by shell and plane from TLE"
  },
  {
    "OBJECT_NAME": "STARLINK-6157",
    "OBJECT_ID": "23061F",
    "EPOCH": "2025-11-10T18:00:39.704256",
    "MEAN_MOTION": 15.02534987,
    "ECCENTRICITY": 0.00014,
    "INCLINATION": 43.0039,
    "RA_OF_ASC_NODE": 123.7014,
    "ARG_OF_PERICENTER": 267.1089,
    "MEAN_ANOMALY": 92.9594,
    "EPHEMERIS_TYPE": 0,
    "CLASSIFICATION_TYPE": "U",
    "NORAD_CAT_ID": 56379,
    "ELEMENT_SET_NO": 999,
    "REV_AT_EPOCH": 13996,
    "BSTAR": 5.8131e-05,
    "MEAN_MOTION_DOT": 5.82e-06,
    "MEAN_MOTION_DDOT": 0.0,
    "TLE_LINE1": "1 56379U 23061F   25314.75045954  .00000582  00000+0  58131-4 0  9992",
    "TLE_LINE2": "2 56379  43.0039 123.7014 0001400 267.1089  92.9594 15.02534987139967",
    "COMMENT": "Grouped by shell and plane from TLE"
  },
  {
    "OBJECT_NAME": "STARLINK-6159",
    "OBJECT_ID": "23061H",
    "EPOCH": "2025-11-11T03:44:37.296672",
    "MEAN_MOTION": 15.02539141,
    "ECCENTRICITY": 0.000123,
    "INCLINATION": 43.0033,
    "RA_OF_ASC_NODE": 121.5846,
    "ARG_OF_PERICENTER": 268.6821,
    "MEAN_ANOMALY": 91.388,
    "EPHEMERIS_TYPE": 0,
    "CLASSIFICATION_TYPE": "U",
    "NORAD_CAT_ID": 56381,
    "ELEMENT_SET_NO": 999,
    "REV_AT_EPOCH": 13892,
    "BSTAR": 3.0636e-05,
    "MEAN_MOTION_DOT": 2.1e-06,
    "MEAN_MOTION_DDOT": 0.0,
    "TLE_LINE1": "1 56381U 23061H   25315.15598723  .00000210  00000+0  30636-4 0  9995",
    "TLE_LINE2": "2 56381  43.0033 121.5846 0001230 268.6821  91.3880 15.02539141138927",
    "COMMENT": "Grouped by shell and plane from TLE"
  },
  {
    "OBJECT_NAME": "STARLINK-6160",
    "OBJECT_ID": "23061J",
    "EPOCH": "2025-11-10T21:04:07.175712",
    "MEAN_MOTION": 15.02540281,
    "ECCENTRICITY": 0.0001167,
    "INCLINATION": 43.0029,
    "RA_OF_ASC_NODE": 122.933,
    "ARG_OF_PERICENTER": 265.0796,
    "MEAN_ANOMALY": 94.9913,
    "EPHEMERIS_TYPE": 0,
    "CLASSIFICATION_TYPE": "U",
    "NORAD_CAT_ID": 56382,
    "ELEMENT_SET_NO": 999,
    "REV_AT_EPOCH": 13888,
    "BSTAR": 1.6765e-05,
    "MEAN_MOTION_DOT": 2.3e-07,
    "MEAN_MOTION_DDOT": 0.0,
    "TLE_LINE1": "1 56382U 23061J   25314.87786083  .00000023  00000+0  16765-4 0  9991",
    "TLE_LINE2": "2 56382  43.0029 122.9330 0001167 265.0796  94.9913 15.02540281138885",
    "COMMENT": "Grouped by shell and plane from TLE"
  },
  {
    "OBJECT_NAME": "STARLINK-6166",
    "OBJECT_ID": "23061K",
    "EPOCH": "2025-11-10T17:55:52.596192",
    "MEAN_MOTION": 15.02530969,
    "ECCENTRICITY": 0.0001497,
    "INCLINATION": 43.0032,
    "RA_OF_ASC_NODE": 123.6731,
    "ARG_OF_PERICENTER": 266.6992,
    "MEAN_ANOMALY": 93.3679,
    "EPHEMERIS_TYPE": 0,
    "CLASSIFICATION_TYPE": "U",
    "NORAD_CAT_ID": 56383,
    "ELEMENT_SET_NO": 999,
    "REV_AT_EPOCH": 13886,
    "BSTAR": 0.0,
    "MEAN_MOTION_DOT": -2.12e-06,
    "MEAN_MOTION_DDOT": 0.0,
    "TLE_LINE1": "1 56383U 23061K   25314.74713653 -.00000212  00000+0 -58857-6 0  9993",
    "TLE_LINE2": "2 56383  43.0032 123.6731 0001497 266.6992  93.3679 15.02530969138866",
    "COMMENT": "Grouped by shell and plane from TLE"
  }
]